{
  "type": "FeatureCollection",
  "features": [
    {
      "type": "Feature",
      "properties": {
        "norad_id": 35052,
        "name": "IRIDIUM 33 DEB",
        "group": "iridium-33-debris",
        "lat": -78.29837841453241,
        "lon": 1.5197996408267762,
        "alt_km": 779.9168491306018,
        "timestamp": "2025-12-14T20:40:32.157868+00:00",
        "meta_object_name": "IRIDIUM 33 DEB",
        "meta_object_id": "1997-051NY",
        "meta_epoch": "2025-12-13T20:00:00.868896",
        "meta_mean_motion": 14.38493698,
        "meta_eccentricity": 0.00136505,
        "meta_inclination": 86.331,
        "meta_ra_of_asc_node": 20.0075,
        "meta_arg_of_pericenter": 82.0555,
        "meta_mean_anomaly": 278.2192,
        "meta_ephemeris_type": 0,
        "meta_classification_type": "U",
        "meta_norad_cat_id": 35052,
        "meta_element_set_no": 999,
        "meta_rev_at_epoch": 87291,
        "meta_bstar": 0.00024132483,
        "meta_mean_motion_dot": 7.57e-06,
        "meta_mean_motion_ddot": 0,
        "tle_line1": "1 35052U 97051NY  25347.83334339  .00000757  00000+0  24132-3 0  9997",
        "tle_line2": "2 35052  86.3310  20.0075 0013650  82.0555 278.2192 14.38493698872915"
      },
      "geometry": {
        "type": "Point",
        "coordinates": [
          1.5197996408267762,
          -78.29837841453241
        ]
      }
    },
    {
      "type": "Feature",
      "properties": {
        "norad_id": 35080,
        "name": "IRIDIUM 33 DEB",
        "group": "iridium-33-debris",
        "lat": 79.5983320081213,
        "lon": -149.82938156892965,
        "alt_km": 589.2861535333604,
        "timestamp": "2025-12-14T20:40:32.157877+00:00",
        "meta_object_name": "IRIDIUM 33 DEB",
        "meta_object_id": "1997-051PF",
        "meta_epoch": "2025-12-14T04:04:06.646368",
        "meta_mean_motion": 14.86306117,
        "meta_eccentricity": 0.00599054,
        "meta_inclination": 86.2063,
        "meta_ra_of_asc_node": 51.6925,
        "meta_arg_of_pericenter": 174.8299,
        "meta_mean_anomaly": 185.3558,
        "meta_ephemeris_type": 0,
        "meta_classification_type": "U",
        "meta_norad_cat_id": 35080,
        "meta_element_set_no": 999,
        "meta_rev_at_epoch": 69709,
        "meta_bstar": 0.0068845127,
        "meta_mean_motion_dot": 0.00063095,
        "meta_mean_motion_ddot": 0,
        "tle_line1": "1 35080U 97051PF  25348.16952137  .00063095  00000+0  68845-2 0  9999",
        "tle_line2": "2 35080  86.2063  51.6925 0059905 174.8299 185.3558 14.86306117697092"
      },
      "geometry": {
        "type": "Point",
        "coordinates": [
          -149.82938156892965,
          79.5983320081213
        ]
      }
    },
    {
      "type": "Feature",
      "properties": {
        "norad_id": 35297,
        "name": "IRIDIUM 33 DEB",
        "group": "iridium-33-debris",
        "lat": -59.08232380172074,
        "lon": -112.08877797895163,
        "alt_km": 752.1467678393101,
        "timestamp": "2025-12-14T20:40:32.157888+00:00",
        "meta_object_name": "IRIDIUM 33 DEB",
        "meta_object_id": "1997-051PM",
        "meta_epoch": "2025-12-12T22:42:20.538720",
        "meta_mean_motion": 14.45159336,
        "meta_eccentricity": 0.00177378,
        "meta_inclination": 86.3854,
        "meta_ra_of_asc_node": 62.6701,
        "meta_arg_of_pericenter": 139.4968,
        "meta_mean_anomaly": 220.7558,
        "meta_ephemeris_type": 0,
        "meta_classification_type": "U",
        "meta_norad_cat_id": 35297,
        "meta_element_set_no": 999,
        "meta_rev_at_epoch": 70429,
        "meta_bstar": 0.0010165954,
        "meta_mean_motion_dot": 3.583e-05,
        "meta_mean_motion_ddot": 0,
        "tle_line1": "1 35297U 97051PM  25346.94607105  .00003583  00000+0  10166-2 0  9994",
        "tle_line2": "2 35297  86.3854  62.6701 0017737 139.4968 220.7558 14.45159336704291"
      },
      "geometry": {
        "type": "Point",
        "coordinates": [
          -112.08877797895163,
          -59.08232380172074
        ]
      }
    },
    {
      "type": "Feature",
      "properties": {
        "norad_id": 35299,
        "name": "IRIDIUM 33 DEB",
        "group": "iridium-33-debris",
        "lat": 40.262276191732845,
        "lon": -150.88855079482104,
        "alt_km": 722.1624858311234,
        "timestamp": "2025-12-14T20:40:32.157898+00:00",
        "meta_object_name": "IRIDIUM 33 DEB",
        "meta_object_id": "1997-051PP",
        "meta_epoch": "2025-12-13T21:30:05.373792",
        "meta_mean_motion": 14.40869269,
        "meta_eccentricity": 0.00589763,
        "meta_inclination": 86.2887,
        "meta_ra_of_asc_node": 32.6829,
        "meta_arg_of_pericenter": 98.7178,
        "meta_mean_anomaly": 74.9066,
        "meta_ephemeris_type": 0,
        "meta_classification_type": "U",
        "meta_norad_cat_id": 35299,
        "meta_element_set_no": 999,
        "meta_rev_at_epoch": 86347,
        "meta_bstar": 0.00094211768,
        "meta_mean_motion_dot": 3.102e-05,
        "meta_mean_motion_ddot": 0,
        "tle_line1": "1 35299U 97051PP  25347.89589553  .00003102  00000+0  94212-3 0  9999",
        "tle_line2": "2 35299  86.2887  32.6829 0058976  98.7178  74.9066 14.40869269863473"
      },
      "geometry": {
        "type": "Point",
        "coordinates": [
          -150.88855079482104,
          40.262276191732845
        ]
      }
    },
    {
      "type": "Feature",
      "properties": {
        "norad_id": 35480,
        "name": "IRIDIUM 33 DEB",
        "group": "iridium-33-debris",
        "lat": -52.88599672579042,
        "lon": 19.163477353746618,
        "alt_km": 743.1801635598931,
        "timestamp": "2025-12-14T20:40:32.157908+00:00",
        "meta_object_name": "IRIDIUM 33 DEB",
        "meta_object_id": "1997-051QA",
        "meta_epoch": "2025-12-09T19:59:43.135296",
        "meta_mean_motion": 14.49744632,
        "meta_eccentricity": 0.00159269,
        "meta_inclination": 86.357,
        "meta_ra_of_asc_node": 26.1722,
        "meta_arg_of_pericenter": 113.2937,
        "meta_mean_anomaly": 246.9945,
        "meta_ephemeris_type": 0,
        "meta_classification_type": "U",
        "meta_norad_cat_id": 35480,
        "meta_element_set_no": 999,
        "meta_rev_at_epoch": 86989,
        "meta_bstar": 0.0009193458,
        "meta_mean_motion_dot": 3.565e-05,
        "meta_mean_motion_ddot": 0,
        "tle_line1": "1 35480U 97051QA  25343.83313814  .00003565  00000+0  91935-3 0  9998",
        "tle_line2": "2 35480  86.3570  26.1722 0015926 113.2937 246.9945 14.49744632869893"
      },
      "geometry": {
        "type": "Point",
        "coordinates": [
          19.163477353746618,
          -52.88599672579042
        ]
      }
    },
    {
      "type": "Feature",
      "properties": {
        "norad_id": 35484,
        "name": "IRIDIUM 33 DEB",
        "group": "iridium-33-debris",
        "lat": 53.9860820223032,
        "lon": 166.73114182744953,
        "alt_km": 549.0119321605016,
        "timestamp": "2025-12-14T20:40:32.157917+00:00",
        "meta_object_name": "IRIDIUM 33 DEB",
        "meta_object_id": "1997-051QE",
        "meta_epoch": "2025-12-13T07:15:48.307680",
        "meta_mean_motion": 14.98714194,
        "meta_eccentricity": 0.00237352,
        "meta_inclination": 86.3615,
        "meta_ra_of_asc_node": 352.4822,
        "meta_arg_of_pericenter": 123.3819,
        "meta_mean_anomaly": 236.9688,
        "meta_ephemeris_type": 0,
        "meta_classification_type": "U",
        "meta_norad_cat_id": 35484,
        "meta_element_set_no": 999,
        "meta_rev_at_epoch": 62024,
        "meta_bstar": 0.0048114888,
        "meta_mean_motion_dot": 0.00058609,
        "meta_mean_motion_ddot": 0,
        "tle_line1": "1 35484U 97051QE  25347.30264245  .00058609  00000+0  48115-2 0  9991",
        "tle_line2": "2 35484  86.3615 352.4822 0023735 123.3819 236.9688 14.98714194620242"
      },
      "geometry": {
        "type": "Point",
        "coordinates": [
          166.73114182744953,
          53.9860820223032
        ]
      }
    },
    {
      "type": "Feature",
      "properties": {
        "norad_id": 35488,
        "name": "IRIDIUM 33 DEB",
        "group": "iridium-33-debris",
        "lat": 63.77585803376912,
        "lon": 112.40311738986483,
        "alt_km": 609.6876866216962,
        "timestamp": "2025-12-14T20:40:32.157927+00:00",
        "meta_object_name": "IRIDIUM 33 DEB",
        "meta_object_id": "1997-051QJ",
        "meta_epoch": "2025-12-14T07:12:10.479456",
        "meta_mean_motion": 14.83115421,
        "meta_eccentricity": 0.00296471,
        "meta_inclination": 86.3249,
        "meta_ra_of_asc_node": 300.1594,
        "meta_arg_of_pericenter": 37.8758,
        "meta_mean_anomaly": 322.4543,
        "meta_ephemeris_type": 0,
        "meta_classification_type": "U",
        "meta_norad_cat_id": 35488,
        "meta_element_set_no": 999,
        "meta_rev_at_epoch": 88289,
        "meta_bstar": 0.0017774187,
        "meta_mean_motion_dot": 0.00014633,
        "meta_mean_motion_ddot": 0,
        "tle_line1": "1 35488U 97051QJ  25348.30012129  .00014633  00000+0  17774-2 0  9994",
        "tle_line2": "2 35488  86.3249 300.1594 0029647  37.8758 322.4543 14.83115421882898"
      },
      "geometry": {
        "type": "Point",
        "coordinates": [
          112.40311738986483,
          63.77585803376912
        ]
      }
    }
  ]
}